start=new Date('2021-12-01T00:00:00.000Z').valueOf();
sats=[{"ECCENTRICITY":"0.00015550","TIME_SYSTEM":"UTC","FILE":"3228256","RCS_SIZE":"LARGE","OBJECT_TYPE":"PAYLOAD","REF_FRAME":"TEME","DECAY_DATE":null,"CENTER_NAME":"EARTH","COUNTRY_CODE":"US","MEAN_MOTION":"15.06392912","ELEMENT_SET_NO":"999","MEAN_MOTION_DOT":"-0.00000791","TLE_LINE2":"2 48400  53.0550 145.7420 0001555  95.6513 264.4653 15.06392912 32142","MEAN_MOTION_DDOT":"0.0000000000000","APOAPSIS":"548.312","LAUNCH_DATE":"2021-05-04","SEMIMAJOR_AXIS":"6925.370","RA_OF_ASC_NODE":"145.7420","OBJECT_ID":"2021-038AZ","CLASSIFICATION_TYPE":"U","EPOCH":"2021-11-30T11:08:00.966912","OBJECT_NAME":"STARLINK-2576","PERIOD":"95.593","MEAN_ANOMALY":"264.4653","INCLINATION":"53.0550","BSTAR":"-0.00003418500000","GP_ID":"190816363","SITE":"AFETR","REV_AT_EPOCH":"3214","PERIAPSIS":"546.158","MEAN_ELEMENT_THEORY":"SGP4","NORAD_CAT_ID":"48400","TLE_LINE1":"1 48400U 21038AZ  21334.46390008 -.00000791  00000-0 -34185-4 0  9997","EPHEMERIS_TYPE":"0","ARG_OF_PERICENTER":"95.6513"},{"FILE":"3228256","TIME_SYSTEM":"UTC","CENTER_NAME":"EARTH","DECAY_DATE":null,"COUNTRY_CODE":"US","RCS_SIZE":"LARGE","OBJECT_TYPE":"PAYLOAD","REF_FRAME":"TEME","ECCENTRICITY":"0.00019390","ELEMENT_SET_NO":"999","MEAN_MOTION_DOT":"-0.00000764","MEAN_MOTION":"15.06393911","CLASSIFICATION_TYPE":"U","OBJECT_ID":"2021-038BA","SEMIMAJOR_AXIS":"6925.367","RA_OF_ASC_NODE":"144.3892","LAUNCH_DATE":"2021-05-04","APOAPSIS":"548.575","TLE_LINE2":"2 48401  53.0544 144.3892 0001939  87.9812 272.1399 15.06393911 32183","MEAN_MOTION_DDOT":"0.0000000000000","MEAN_ELEMENT_THEORY":"SGP4","PERIAPSIS":"545.889","REV_AT_EPOCH":"3218","EPHEMERIS_TYPE":"0","ARG_OF_PERICENTER":"87.9812","TLE_LINE1":"1 48401U 21038BA  21334.76519693 -.00000764  00000-0 -32421-4 0  9995","NORAD_CAT_ID":"48401","MEAN_ANOMALY":"272.1399","PERIOD":"95.593","OBJECT_NAME":"STARLINK-2571","EPOCH":"2021-11-30T18:21:53.014752","GP_ID":"190817614","BSTAR":"-0.00003242100000","SITE":"AFETR","INCLINATION":"53.0544"},{"FILE":"3228256","TIME_SYSTEM":"UTC","DECAY_DATE":null,"CENTER_NAME":"EARTH","COUNTRY_CODE":"US","OBJECT_TYPE":"PAYLOAD","RCS_SIZE":"LARGE","REF_FRAME":"TEME","ECCENTRICITY":"0.00017770","ELEMENT_SET_NO":"999","MEAN_MOTION_DOT":"-0.00001902","MEAN_MOTION":"15.06398351","OBJECT_ID":"2021-038BB","CLASSIFICATION_TYPE":"U","TLE_LINE2":"2 48402  53.0557 145.4649 0001777  88.7573 271.3619 15.06398351 32159","MEAN_MOTION_DDOT":"0.0000000000000","RA_OF_ASC_NODE":"145.4649","SEMIMAJOR_AXIS":"6925.354","LAUNCH_DATE":"2021-05-04","APOAPSIS":"548.449","REV_AT_EPOCH":"3215","MEAN_ELEMENT_THEORY":"SGP4","PERIAPSIS":"545.988","TLE_LINE1":"1 48402U 21038BB  21334.52655960 -.00001902  00000-0 -10885-3 0  9992","NORAD_CAT_ID":"48402","EPHEMERIS_TYPE":"0","ARG_OF_PERICENTER":"88.7573","OBJECT_NAME":"STARLINK-2560","EPOCH":"2021-11-30T12:38:14.749440","MEAN_ANOMALY":"271.3619","PERIOD":"95.592","INCLINATION":"53.0557","BSTAR":"-0.00010885000000","GP_ID":"190817865","SITE":"AFETR"},{"MEAN_MOTION":"15.06402772","ELEMENT_SET_NO":"999","MEAN_MOTION_DOT":"0.00000976","ECCENTRICITY":"0.00017900","TIME_SYSTEM":"UTC","FILE":"3228256","REF_FRAME":"TEME","RCS_SIZE":"LARGE","OBJECT_TYPE":"PAYLOAD","COUNTRY_CODE":"US","DECAY_DATE":null,"CENTER_NAME":"EARTH","EPOCH":"2021-11-30T15:44:01.358592","OBJECT_NAME":"STARLINK-2561","PERIOD":"95.592","MEAN_ANOMALY":"271.4238","INCLINATION":"53.0542","GP_ID":"190816613","SITE":"AFETR","BSTAR":"0.00008440600000","REV_AT_EPOCH":"3217","PERIAPSIS":"545.965","MEAN_ELEMENT_THEORY":"SGP4","NORAD_CAT_ID":"48403","TLE_LINE1":"1 48403U 21038BC  21334.65557128  .00000976  00000-0  84406-4 0  9993","EPHEMERIS_TYPE":"0","ARG_OF_PERICENTER":"88.6956","MEAN_MOTION_DDOT":"0.0000000000000","TLE_LINE2":"2 48403  53.0542 144.8719 0001790  88.6956 271.4238 15.06402772 32177","APOAPSIS":"548.445","LAUNCH_DATE":"2021-05-04","RA_OF_ASC_NODE":"144.8719","SEMIMAJOR_AXIS":"6925.340","OBJECT_ID":"2021-038BC","CLASSIFICATION_TYPE":"U"},{"OBJECT_ID":"2021-038BD","CLASSIFICATION_TYPE":"U","TLE_LINE2":"2 48404  53.0558 145.2015 0001799  89.6727 270.4468 15.06398390 32168","MEAN_MOTION_DDOT":"0.0000000000000","RA_OF_ASC_NODE":"145.2015","SEMIMAJOR_AXIS":"6925.353","LAUNCH_DATE":"2021-05-04","APOAPSIS":"548.464","REV_AT_EPOCH":"3216","MEAN_ELEMENT_THEORY":"SGP4","PERIAPSIS":"545.973","TLE_LINE1":"1 48404U 21038BD  21334.58553863  .00000947  00000-0  82487-4 0  9993","NORAD_CAT_ID":"48404","EPHEMERIS_TYPE":"0","ARG_OF_PERICENTER":"89.6727","OBJECT_NAME":"STARLINK-2593","EPOCH":"2021-11-30T14:03:10.537632","MEAN_ANOMALY":"270.4468","PERIOD":"95.592","INCLINATION":"53.0558","SITE":"AFETR","GP_ID":"190816863","BSTAR":"0.00008248700000","FILE":"3228256","TIME_SYSTEM":"UTC","COUNTRY_CODE":"US","DECAY_DATE":null,"CENTER_NAME":"EARTH","RCS_SIZE":"LARGE","REF_FRAME":"TEME","OBJECT_TYPE":"PAYLOAD","ECCENTRICITY":"0.00017990","ELEMENT_SET_NO":"999","MEAN_MOTION_DOT":"0.00000947","MEAN_MOTION":"15.06398390"},{"LAUNCH_DATE":"2021-05-04","APOAPSIS":"548.580","RA_OF_ASC_NODE":"144.3219","SEMIMAJOR_AXIS":"6925.345","MEAN_MOTION_DDOT":"0.0000000000000","TLE_LINE2":"2 48405  53.0557 144.3219 0001979  92.3203 267.8013 15.06401299 32196","CLASSIFICATION_TYPE":"U","OBJECT_ID":"2021-038BE","SITE":"AFETR","GP_ID":"190817115","BSTAR":"0.00009590700000","INCLINATION":"53.0557","PERIOD":"95.592","MEAN_ANOMALY":"267.8013","EPOCH":"2021-11-30T18:44:29.607072","OBJECT_NAME":"STARLINK-2570","ARG_OF_PERICENTER":"92.3203","EPHEMERIS_TYPE":"0","NORAD_CAT_ID":"48405","TLE_LINE1":"1 48405U 21038BE  21334.78089823  .00001147  00000-0  95907-4 0  9990","PERIAPSIS":"545.839","MEAN_ELEMENT_THEORY":"SGP4","REV_AT_EPOCH":"3219","ECCENTRICITY":"0.00019790","RCS_SIZE":"LARGE","OBJECT_TYPE":"PAYLOAD","REF_FRAME":"TEME","CENTER_NAME":"EARTH","DECAY_DATE":null,"COUNTRY_CODE":"US","TIME_SYSTEM":"UTC","FILE":"3228256","MEAN_MOTION":"15.06401299","MEAN_MOTION_DOT":"0.00001147","ELEMENT_SET_NO":"999"},{"ELEMENT_SET_NO":"999","MEAN_MOTION_DOT":"0.00000501","MEAN_MOTION":"15.06389514","TIME_SYSTEM":"UTC","FILE":"3228256","REF_FRAME":"TEME","RCS_SIZE":"LARGE","OBJECT_TYPE":"PAYLOAD","CENTER_NAME":"EARTH","DECAY_DATE":null,"COUNTRY_CODE":"US","ECCENTRICITY":"0.00016250","REV_AT_EPOCH":"3219","PERIAPSIS":"546.120","MEAN_ELEMENT_THEORY":"SGP4","NORAD_CAT_ID":"48406","TLE_LINE1":"1 48406U 21038BF  21334.77720315  .00000501  00000-0  52534-4 0  9990","ARG_OF_PERICENTER":"96.1777","EPHEMERIS_TYPE":"0","EPOCH":"2021-11-30T18:39:10.352160","OBJECT_NAME":"STARLINK-2568","PERIOD":"95.593","MEAN_ANOMALY":"263.9397","INCLINATION":"53.0549","GP_ID":"190817366","BSTAR":"0.00005253400000","SITE":"AFETR","OBJECT_ID":"2021-038BF","CLASSIFICATION_TYPE":"U","TLE_LINE2":"2 48406  53.0549 144.3286 0001625  96.1777 263.9397 15.06389514 32195","MEAN_MOTION_DDOT":"0.0000000000000","LAUNCH_DATE":"2021-05-04","APOAPSIS":"548.371","RA_OF_ASC_NODE":"144.3286","SEMIMAJOR_AXIS":"6925.381"},{"ECCENTRICITY":"0.00020690","REF_FRAME":"TEME","RCS_SIZE":"LARGE","OBJECT_TYPE":"PAYLOAD","DECAY_DATE":null,"CENTER_NAME":"EARTH","COUNTRY_CODE":"US","TIME_SYSTEM":"UTC","FILE":"3228256","MEAN_MOTION":"15.06392025","MEAN_MOTION_DOT":"-0.00001046","ELEMENT_SET_NO":"999","LAUNCH_DATE":"2021-05-04","APOAPSIS":"548.671","RA_OF_ASC_NODE":"144.3470","SEMIMAJOR_AXIS":"6925.373","MEAN_MOTION_DDOT":"0.0000000000000","TLE_LINE2":"2 48407  53.0532 144.3470 0002069  88.9975 271.1251 15.06392025 32185","CLASSIFICATION_TYPE":"U","OBJECT_ID":"2021-038BG","BSTAR":"-0.00005134500000","GP_ID":"190816114","SITE":"AFETR","INCLINATION":"53.0532","PERIOD":"95.593","MEAN_ANOMALY":"271.1251","EPOCH":"2021-11-30T18:33:51.667488","OBJECT_NAME":"STARLINK-2595","ARG_OF_PERICENTER":"88.9975","EPHEMERIS_TYPE":"0","NORAD_CAT_ID":"48407","TLE_LINE1":"1 48407U 21038BG  21334.77351467 -.00001046  00000-0 -51345-4 0  9995","PERIAPSIS":"545.805","MEAN_ELEMENT_THEORY":"SGP4","REV_AT_EPOCH":"3218"},{"MEAN_MOTION":"15.06392914","ELEMENT_SET_NO":"999","MEAN_MOTION_DOT":"-0.00000253","ECCENTRICITY":"0.00019010","FILE":"3228256","TIME_SYSTEM":"UTC","CENTER_NAME":"EARTH","DECAY_DATE":null,"COUNTRY_CODE":"US","RCS_SIZE":"LARGE","OBJECT_TYPE":"PAYLOAD","REF_FRAME":"TEME","OBJECT_NAME":"STARLINK-2592","EPOCH":"2021-11-30T18:28:33.365568","MEAN_ANOMALY":"266.1142","PERIOD":"95.593","INCLINATION":"53.0543","SITE":"AFETR","GP_ID":"190816364","BSTAR":"0.00000189740000","REV_AT_EPOCH":"3218","MEAN_ELEMENT_THEORY":"SGP4","PERIAPSIS":"545.919","TLE_LINE1":"1 48408U 21038BH  21334.76983062 -.00000253  00000-0  18974-5 0  9997","NORAD_CAT_ID":"48408","EPHEMERIS_TYPE":"0","ARG_OF_PERICENTER":"94.0064","TLE_LINE2":"2 48408  53.0543 144.3572 0001901  94.0064 266.1142 15.06392914 32182","MEAN_MOTION_DDOT":"0.0000000000000","RA_OF_ASC_NODE":"144.3572","SEMIMAJOR_AXIS":"6925.370","APOAPSIS":"548.552","LAUNCH_DATE":"2021-05-04","OBJECT_ID":"2021-038BH","CLASSIFICATION_TYPE":"U"},{"ECCENTRICITY":"0.00018210","REF_FRAME":"TEME","RCS_SIZE":"LARGE","OBJECT_TYPE":"PAYLOAD","CENTER_NAME":"EARTH","DECAY_DATE":null,"COUNTRY_CODE":"US","TIME_SYSTEM":"UTC","FILE":"3228256","MEAN_MOTION":"15.06403827","MEAN_MOTION_DOT":"0.00001372","ELEMENT_SET_NO":"999","TLE_LINE2":"2 48409  53.0547 149.2595 0001821  85.4710 274.6487 15.06403827 32136","MEAN_MOTION_DDOT":"0.0000000000000","APOAPSIS":"548.463","LAUNCH_DATE":"2021-05-04","SEMIMAJOR_AXIS":"6925.337","RA_OF_ASC_NODE":"149.2595","OBJECT_ID":"2021-038BJ","CLASSIFICATION_TYPE":"U","INCLINATION":"53.0547","SITE":"AFETR","GP_ID":"190817615","BSTAR":"0.00011097000000","EPOCH":"2021-11-30T19:02:24.406656","OBJECT_NAME":"STARLINK-2596","PERIOD":"95.592","MEAN_ANOMALY":"274.6487","NORAD_CAT_ID":"48409","TLE_LINE1":"1 48409U 21038BJ  21334.79333804  .00001372  00000-0  11097-3 0  9993","EPHEMERIS_TYPE":"0","ARG_OF_PERICENTER":"85.4710","REV_AT_EPOCH":"3213","PERIAPSIS":"545.941","MEAN_ELEMENT_THEORY":"SGP4"}];
